ONEWEB-0456             
1 51646U 22012AA  24320.93527536 -.00000252  00000+0 -75941-3 0  9999
2 51646  87.8883 151.3826 0001537  78.7866 281.3434 13.10371361133615
ONEWEB-0457             
1 51647U 22012AB  24320.91205041  .00000633  00000+0  17758-2 0  9994
2 51647  87.8895 151.4227 0001406  94.8301 265.2987 13.10372023133613
ONEWEB-0458             
1 51648U 22012AC  24320.93361330 -.00000197  00000+0 -59965-3 0  9995
2 51648  87.8876 151.4321 0001646  87.2363 272.8952 13.10368589133571
ONEWEB-0461             
1 51649U 22012AD  24320.89919627  .00002292  00000+0  58672-2 0  9998
2 51649  87.9070 121.0570 0001638  96.1126 264.0192 13.17671601137735
ONEWEB-0463             
1 51650U 22012AE  24320.72879706  .00000075  00000+0  16102-3 0  9995
2 51650  87.9076 121.1444 0001644  95.7497 264.3822 13.17647964137498
ONEWEB-0464             
1 51651U 22012AF  24320.93029610  .00000131  00000+0  33906-3 0  9994
2 51651  87.8895 151.4255 0001677  73.7841 286.3471 13.10369780133599
ONEWEB-0468             
1 51652U 22012AG  24320.93692935 -.00000370  00000+0 -10969-2 0  9991
2 51652  87.8895 151.4167 0001520  85.1818 274.9482 13.10369104133573
ONEWEB-0473             
1 51653U 22012AH  24321.07471722  .00000512  00000+0  14294-2 0  9998
2 51653  87.8895 151.3925 0001645  86.1417 273.9899 13.10369946134890
ONEWEB-0474             
1 51654U 22012AJ  24320.91370985  .00000724  00000+0  20370-2 0  9997
2 51654  87.8885 151.4073 0001761  80.7038 279.4289 13.10372420133561
ONEWEB-0475             
1 51655U 22012AK  24320.89248093  .00000039  00000+0  66980-4 0  9997
2 51655  87.9074 121.0912 0002439  88.0979 272.0432 13.17649469137533
ONEWEB-0490             
1 54113U 22138A   24320.72826601  .00000088  00000+0  18628-3 0  9996
2 54113  87.9182  59.9875 0001772  96.5348 263.5987 13.19722752100534
ONEWEB-0492             
1 54114U 22138B   24320.52608058 -.00000425  00000+0 -10952-2 0  9997
2 54114  87.9189  60.0391 0001568  94.2456 265.8856 13.19725391100516
ONEWEB-0495             
1 54115U 22138C   24321.03467888 -.00005632  00000+0 -14104-1 0  9996
2 54115  87.9187  59.9493 0002248  85.3114 274.8276 13.19748612101432
ONEWEB-0497             
1 54116U 22138D   24320.51660684  .00000035  00000+0  55314-4 0  9999
2 54116  87.9186  60.0341 0001723  97.6916 262.4412 13.19728210100481
ONEWEB-0499             
1 54117U 22138E   24320.72668684  .00000072  00000+0  14731-3 0  9999
2 54117  87.9188  60.0001 0002246 102.4960 257.6424 13.19726297100529
ONEWEB-0500             
1 54118U 22138F   24320.72984911  .00000027  00000+0  34143-4 0  9994
2 54118  87.9183  59.9909 0001663 100.3744 259.7576 13.19726128100533
ONEWEB-0501             
1 54119U 22138G   24320.75986212 -.00000008  00000+0 -51411-4 0  9992
2 54119  87.9187  59.9814 0002053  89.3748 270.7620 13.19727105100514
ONEWEB-0502             
1 54120U 22138H   24320.51818680  .00000117  00000+0  25905-3 0  9998
2 54120  87.9186  60.0166 0002068  95.6793 264.4575 13.19722578100501
ONEWEB-0503             
1 54121U 22138J   24320.73458916  .00000003  00000+0 -25477-4 0  9995
2 54121  87.9180  59.9794 0002049 108.9275 251.2080 13.19723884100520
ONEWEB-0504             
1 54122U 22138K   24321.02520566 -.00000022  00000+0 -86190-4 0  9991
2 54122  87.9185  59.9311 0002102  97.8887 262.2485 13.19728410101449
ONEWEB-0505             
1 54123U 22138L   24320.56715224  .00000168  00000+0  38833-3 0  9996
2 54123  87.9184  60.0152 0002307  88.8974 271.2423 13.19728871100496
ONEWEB-0506             
1 54124U 22138M   24320.54187474  .00000137  00000+0  31016-3 0  9997
2 54124  87.9181  60.0169 0001860  95.0379 265.0966 13.19729103100485
ONEWEB-0507             
1 54125U 22138N   24320.56240964  .00000119  00000+0  26521-3 0  9999
2 54125  87.9192  60.0471 0001791  93.1628 266.9710 13.19728845100538
ONEWEB-0508             
1 54126U 22138P   24320.71088191  .00000086  00000+0  18314-3 0  9993
2 54126  87.9187  60.0067 0001838  87.3420 272.7923 13.19728025100532
ONEWEB-0509             
1 54127U 22138Q   24320.53399256  .00000068  00000+0  13859-3 0  9990
2 54127  87.9186  60.0189 0001831  97.6821 262.4520 13.19725222100488
ONEWEB-0510             
1 54128U 22138R   24321.18293242 -.00000007  00000+0 -49052-4 0  9991
2 54128  87.9290  29.4220 0001526 102.9395 257.1909 13.20773275103889
ONEWEB-0511             
1 54129U 22138S   24320.68246254  .00000006  00000+0 -17048-4 0  9995
2 54129  87.9186  59.9934 0002051 105.4525 254.6834 13.19727517100535
ONEWEB-0512             
1 54130U 22138T   24320.52292291  .00000076  00000+0  15819-3 0  9991
2 54130  87.9189  60.0525 0002164  92.7221 267.4159 13.19729395100487
ONEWEB-0513             
1 54131U 22138U   24320.56952753  .00000116  00000+0  25732-3 0  9992
2 54131  87.9190  60.0342 0002263  94.9510 265.1881 13.19725527100370
ONEWEB-0514             
1 54132U 22138V   24320.69035478  .00000003  00000+0 -25021-4 0  9991
2 54132  87.9185  60.0001 0001760 103.3443 256.7886 13.19727605100525
ONEWEB-0515             
1 54133U 22138W   24320.64001269  .00000020  00000+0  17342-4 0  9993
2 54133  87.9290  29.5080 0000831 112.0141 248.1081 13.20770820102938
ONEWEB-0516             
1 54134U 22138X   24320.74089806  .00000030  00000+0  41391-4 0  9990
2 54134  87.9193  60.0112 0001712  99.0201 261.1125 13.19722309100532
ONEWEB-0517             
1 54135U 22138Y   24321.02363023  .00000033  00000+0  49169-4 0  9993
2 54135  87.9185  59.9294 0002105 107.5064 252.6299 13.19722204101443
ONEWEB-0518             
1 54136U 22138Z   24320.51186630  .00000028  00000+0  37611-4 0  9997
2 54136  87.9194  60.0539 0001839 102.5580 257.5758 13.19728375100505
ONEWEB-0519             
1 54137U 22138AA  24320.53713716 -.00000438  00000+0 -11253-2 0  9990
2 54137  87.9182  60.0204 0002004 105.3401 254.7953 13.19725364100512
ONEWEB-0520             
1 54138U 22138AB  24320.57189324  .00000096  00000+0  20704-3 0  9997
2 54138  87.9186  60.0169 0001947  89.0061 271.1295 13.19723651100500
ONEWEB-0521             
1 54139U 22138AC  24320.52924065  .00000134  00000+0  30149-3 0  9999
2 54139  87.9184  60.0161 0001859 109.2137 250.9197 13.19722769100440
ONEWEB-0522             
1 54140U 22138AD  24320.73615067 -.00000018  00000+0 -76850-4 0  9996
2 54140  87.9182  59.9763 0001689  98.0454 262.0870 13.19728848100517
ONEWEB-0523             
1 54141U 22138AE  24320.62739877  .00000140  00000+0  31339-3 0  9997
2 54141  87.9292  29.5395 0001669 130.8086 229.3192 13.20770836102935
ONEWEB-0524             
1 54142U 22138AF  24320.91936215  .00000093  00000+0  19781-3 0  9999
2 54142  87.9286  29.4843 0000841  86.0154 274.1076 13.20772617102977
ONEWEB-0525             
1 54143U 22138AG  24320.52766331  .00000129  00000+0  28902-3 0  9992
2 54143  87.9185  60.0310 0001930  94.5255 265.6098 13.19728490100506
ONEWEB-0526             
1 54144U 22138AH  24320.56082860  .00000059  00000+0  11396-3 0  9996
2 54144  87.9181  60.0170 0001708  96.3804 263.7523 13.19729647100484
ONEWEB-0529             
1 54145U 22138AJ  24320.56398425  .00000148  00000+0  33642-3 0  9991
2 54145  87.9191  60.0425 0001882  92.5027 267.6321 13.19728470100502
ONEWEB-0531             
1 54146U 22138AK  24320.90514845 -.00000412  00000+0 -10443-2 0  9995
2 54146  87.9293  29.4796 0001103 131.6384 228.4844 13.20770729102977
ONEWEB-0535             
1 54147U 22138AL  24320.67297315 -.00000046  00000+0 -14624-3 0  9999
2 54147  87.9184  59.9918 0001541 109.4836 250.6463 13.19727823100531
ONEWEB-0536             
1 54148U 22138AM  24320.89253114  .00000053  00000+0  99544-4 0  9994
2 54148  87.9293  29.5296 0001692 132.4380 227.6897 13.20771916102960
ONEWEB-0527             
1 54642U 22166A   24320.85083247 -.00000090  00000+0 -25051-3 0  9992
2 54642  87.9319 359.2032 0001846  93.5593 266.5752 13.21824248 95133
ONEWEB-0528             
1 54643U 22166B   24321.08425284 -.00002451  00000+0 -59683-2 0  9990
2 54643  87.9326 359.1467 0002201  96.8896 263.2488 13.21805937 95629
ONEWEB-0539             
1 54644U 22166C   24320.81771464  .00000105  00000+0  22174-3 0  9993
2 54644  87.9324 359.2062 0002092  97.9996 262.1375 13.21825830 95134
ONEWEB-0540             
1 54645U 22166D   24320.81219824  .00000027  00000+0  35076-4 0  9990
2 54645  87.9321 359.2170 0002115  98.5799 261.5575 13.21826073 95120
ONEWEB-0542             
1 54646U 22166E   24320.82717993  .00000105  00000+0  22229-3 0  9994
2 54646  87.9326 359.2032 0002212 106.3712 253.7665 13.21825073 95137
ONEWEB-0545             
1 54647U 22166F   24321.09684454  .00000042  00000+0  70801-4 0  9990
2 54647  87.9315 359.1556 0002389  99.1918 260.9486 13.21825957 95602
ONEWEB-0580             
1 54648U 22166G   24321.14571613 -.00000378  00000+0 -94666-3 0  9997
2 54648  87.9321 359.1260 0002191 106.2745 253.8630 13.21824890 95642
ONEWEB-0582             
1 54649U 22166H   24320.80981867  .00000000  00000+0 -30408-4 0  9992
2 54649  87.9318 359.2252 0002298 110.8557 249.2824 13.21821976 95119
ONEWEB-0583             
1 54650U 22166J   24320.36668029  .00000120  00000+0  25985-3 0  9992
2 54650  87.9318 359.3111 0001959  96.3672 263.7685 13.21828138 95062
ONEWEB-0584             
1 54651U 22166K   24321.14414387  .00000090  00000+0  18625-3 0  9995
2 54651  87.9321 359.1300 0002101 109.0576 251.0786 13.21828190 95622
ONEWEB-0585             
1 54652U 22166L   24320.56379783  .00000013  00000+0  98089-6 0  9991
2 54652  87.9311 359.2547 0001780  95.3026 264.8311 13.21826790 95085
ONEWEB-0586             
1 54653U 22166M   24320.87922135  .00000166  00000+0  37015-3 0  9999
2 54653  87.9319 359.2002 0002158  95.2983 264.8397 13.21826147 95126
ONEWEB-0587             
1 54654U 22166N   24320.81296940 -.00000398  00000+0 -99423-3 0  9992
2 54654  87.9318 359.1663 0001793  91.4758 268.6582 13.21824627 95275
